CCSDS_OMM_VERS = 2.0
CREATION_DATE  = 
ORIGINATOR     = 

OBJECT_NAME    = SL-3 R/B
OBJECT_ID      = 1982-039B
CENTER_NAME    = EARTH
REF_FRAME      = TEME
TIME_SYSTEM    = UTC
MEAN_ELEMENT_THEORY = SGP/SGP4

EPOCH          = 2025-11-19T13:40:56.765280
MEAN_MOTION    = 15.09338542
ECCENTRICITY   = .00316272
INCLINATION    = 81.1766
RA_OF_ASC_NODE = 342.7434
ARG_OF_PERICENTER = 329.1444
MEAN_ANOMALY   = 30.7921

EPHEMERIS_TYPE = 0
CLASSIFICATION_TYPE = U
NORAD_CAT_ID   = 13154
ELEMENT_SET_NO = 999
REV_AT_EPOCH   = 36502
BSTAR          = .16403861E-3
MEAN_MOTION_DOT = .267E-4
MEAN_MOTION_DDOT = 0

CCSDS_OMM_VERS = 2.0
CREATION_DATE  = 
ORIGINATOR     = 

OBJECT_NAME    = SL-3 R/B
OBJECT_ID      = 1982-079B
CENTER_NAME    = EARTH
REF_FRAME      = TEME
TIME_SYSTEM    = UTC
MEAN_ELEMENT_THEORY = SGP/SGP4

EPOCH          = 2025-11-19T13:26:53.754432
MEAN_MOTION    = 15.23234879
ECCENTRICITY   = .00257584
INCLINATION    = 81.1454
RA_OF_ASC_NODE = 322.9796
ARG_OF_PERICENTER = 174.6441
MEAN_ANOMALY   = 185.5073

EPHEMERIS_TYPE = 0
CLASSIFICATION_TYPE = U
NORAD_CAT_ID   = 13403
ELEMENT_SET_NO = 999
REV_AT_EPOCH   = 36092
BSTAR          = .23114184E-3
MEAN_MOTION_DOT = .5548E-4
MEAN_MOTION_DDOT = 0

CCSDS_OMM_VERS = 2.0
CREATION_DATE  = 
ORIGINATOR     = 

OBJECT_NAME    = SL-14 R/B
OBJECT_ID      = 1982-092B
CENTER_NAME    = EARTH
REF_FRAME      = TEME
TIME_SYSTEM    = UTC
MEAN_ELEMENT_THEORY = SGP/SGP4

EPOCH          = 2025-11-19T18:52:39.120096
MEAN_MOTION    = 14.86520196
ECCENTRICITY   = .0019164
INCLINATION    = 82.5686
RA_OF_ASC_NODE = 244.1755
ARG_OF_PERICENTER = 309.1238
MEAN_ANOMALY   = 70.0353

EPHEMERIS_TYPE = 0
CLASSIFICATION_TYPE = U
NORAD_CAT_ID   = 13553
ELEMENT_SET_NO = 999
REV_AT_EPOCH   = 31260
BSTAR          = .77788E-4
MEAN_MOTION_DOT = .714E-5
MEAN_MOTION_DDOT = 0

CCSDS_OMM_VERS = 2.0
CREATION_DATE  = 
ORIGINATOR     = 

OBJECT_NAME    = SL-3 R/B
OBJECT_ID      = 1983-010B
CENTER_NAME    = EARTH
REF_FRAME      = TEME
TIME_SYSTEM    = UTC
MEAN_ELEMENT_THEORY = SGP/SGP4

EPOCH          = 2025-11-19T11:47:36.178080
MEAN_MOTION    = 15.42635275
ECCENTRICITY   = .00182015
INCLINATION    = 81.1020
RA_OF_ASC_NODE = 136.9779
ARG_OF_PERICENTER = 70.6723
MEAN_ANOMALY   = 289.6485

EPHEMERIS_TYPE = 0
CLASSIFICATION_TYPE = U
NORAD_CAT_ID   = 13819
ELEMENT_SET_NO = 999
REV_AT_EPOCH   = 34093
BSTAR          = .32008036E-3
MEAN_MOTION_DOT = .14054E-3
MEAN_MOTION_DDOT = 0

CCSDS_OMM_VERS = 2.0
CREATION_DATE  = 
ORIGINATOR     = 

OBJECT_NAME    = SL-3 R/B
OBJECT_ID      = 1983-075B
CENTER_NAME    = EARTH
REF_FRAME      = TEME
TIME_SYSTEM    = UTC
MEAN_ELEMENT_THEORY = SGP/SGP4

EPOCH          = 2025-11-19T18:54:16.075584
MEAN_MOTION    = 15.35505586
ECCENTRICITY   = .0020906
INCLINATION    = 97.6095
RA_OF_ASC_NODE = 319.5129
ARG_OF_PERICENTER = 261.9802
MEAN_ANOMALY   = 97.9069

EPHEMERIS_TYPE = 0
CLASSIFICATION_TYPE = U
NORAD_CAT_ID   = 14208
ELEMENT_SET_NO = 999
REV_AT_EPOCH   = 31327
BSTAR          = .30183E-3
MEAN_MOTION_DOT = .10404E-3
MEAN_MOTION_DDOT = 0

CCSDS_OMM_VERS = 2.0
CREATION_DATE  = 
ORIGINATOR     = 

OBJECT_NAME    = COSMOS 1536
OBJECT_ID      = 1984-013A
CENTER_NAME    = EARTH
REF_FRAME      = TEME
TIME_SYSTEM    = UTC
MEAN_ELEMENT_THEORY = SGP/SGP4

EPOCH          = 2025-11-19T16:03:35.432640
MEAN_MOTION    = 15.22166316
ECCENTRICITY   = .0013795
INCLINATION    = 82.5475
RA_OF_ASC_NODE = 217.0340
ARG_OF_PERICENTER = 316.3420
MEAN_ANOMALY   = 43.6724

EPHEMERIS_TYPE = 0
CLASSIFICATION_TYPE = U
NORAD_CAT_ID   = 14699
ELEMENT_SET_NO = 999
REV_AT_EPOCH   = 25587
BSTAR          = .29863E-3
MEAN_MOTION_DOT = .6899E-4
MEAN_MOTION_DDOT = 0

CCSDS_OMM_VERS = 2.0
CREATION_DATE  = 
ORIGINATOR     = 

OBJECT_NAME    = SL-14 R/B
OBJECT_ID      = 1984-027B
CENTER_NAME    = EARTH
REF_FRAME      = TEME
TIME_SYSTEM    = UTC
MEAN_ELEMENT_THEORY = SGP/SGP4

EPOCH          = 2025-11-19T19:02:48.902784
MEAN_MOTION    = 14.85839928
ECCENTRICITY   = .0017429
INCLINATION    = 82.5417
RA_OF_ASC_NODE = 348.0766
ARG_OF_PERICENTER = 342.4486
MEAN_ANOMALY   = 17.6126

EPHEMERIS_TYPE = 0
CLASSIFICATION_TYPE = U
NORAD_CAT_ID   = 14820
ELEMENT_SET_NO = 999
REV_AT_EPOCH   = 23131
BSTAR          = .60604E-4
MEAN_MOTION_DOT = .553E-5
MEAN_MOTION_DDOT = 0

CCSDS_OMM_VERS = 2.0
CREATION_DATE  = 
ORIGINATOR     = 

OBJECT_NAME    = SL-8 R/B
OBJECT_ID      = 1985-006B
CENTER_NAME    = EARTH
REF_FRAME      = TEME
TIME_SYSTEM    = UTC
MEAN_ELEMENT_THEORY = SGP/SGP4

EPOCH          = 2025-11-19T19:22:11.824320
MEAN_MOTION    = 14.37700485
ECCENTRICITY   = .001775
INCLINATION    = 74.0445
RA_OF_ASC_NODE = 103.3251
ARG_OF_PERICENTER = 42.4791
MEAN_ANOMALY   = 112.4979

EPHEMERIS_TYPE = 0
CLASSIFICATION_TYPE = U
NORAD_CAT_ID   = 15483
ELEMENT_SET_NO = 999
REV_AT_EPOCH   = 13823
BSTAR          = .10505E-3
MEAN_MOTION_DOT = .29E-5
MEAN_MOTION_DDOT = 0

CCSDS_OMM_VERS = 2.0
CREATION_DATE  = 
ORIGINATOR     = 

OBJECT_NAME    = SL-12 R/B(2)
OBJECT_ID      = 1985-042D
CENTER_NAME    = EARTH
REF_FRAME      = TEME
TIME_SYSTEM    = UTC
MEAN_ELEMENT_THEORY = SGP/SGP4

EPOCH          = 2025-11-19T11:18:12.557952
MEAN_MOTION    = 14.21941435
ECCENTRICITY   = .00374692
INCLINATION    = 71.1078
RA_OF_ASC_NODE = 320.5789
ARG_OF_PERICENTER = 295.5271
MEAN_ANOMALY   = 177.2088

EPHEMERIS_TYPE = 0
CLASSIFICATION_TYPE = U
NORAD_CAT_ID   = 15772
ELEMENT_SET_NO = 999
REV_AT_EPOCH   = 9872
BSTAR          = .10370227E-3
MEAN_MOTION_DOT = .183E-5
MEAN_MOTION_DDOT = 0

CCSDS_OMM_VERS = 2.0
CREATION_DATE  = 
ORIGINATOR     = 

OBJECT_NAME    = SL-14 R/B
OBJECT_ID      = 1985-069B
CENTER_NAME    = EARTH
REF_FRAME      = TEME
TIME_SYSTEM    = UTC
MEAN_ELEMENT_THEORY = SGP/SGP4

EPOCH          = 2025-11-19T17:51:55.450656
MEAN_MOTION    = 14.86284299
ECCENTRICITY   = .0018457
INCLINATION    = 82.5246
RA_OF_ASC_NODE = 128.3217
ARG_OF_PERICENTER = 192.3355
MEAN_ANOMALY   = 167.7412

EPHEMERIS_TYPE = 0
CLASSIFICATION_TYPE = U
NORAD_CAT_ID   = 15945
ELEMENT_SET_NO = 999
REV_AT_EPOCH   = 15650
BSTAR          = .75624E-4
MEAN_MOTION_DOT = .691E-5
MEAN_MOTION_DDOT = 0

CCSDS_OMM_VERS = 2.0
CREATION_DATE  = 
ORIGINATOR     = 

OBJECT_NAME    = SL-16 R/B
OBJECT_ID      = 1985-097B
CENTER_NAME    = EARTH
REF_FRAME      = TEME
TIME_SYSTEM    = UTC
MEAN_ELEMENT_THEORY = SGP/SGP4

EPOCH          = 2025-11-19T13:37:27.647904
MEAN_MOTION    = 14.16579103
ECCENTRICITY   = .0005513
INCLINATION    = 71.0043
RA_OF_ASC_NODE = 12.3877
ARG_OF_PERICENTER = 53.5545
MEAN_ANOMALY   = 109.7045

EPHEMERIS_TYPE = 0
CLASSIFICATION_TYPE = U
NORAD_CAT_ID   = 16182
ELEMENT_SET_NO = 999
REV_AT_EPOCH   = 7163
BSTAR          = .18037E-3
MEAN_MOTION_DOT = .312E-5
MEAN_MOTION_DDOT = 0

CCSDS_OMM_VERS = 2.0
CREATION_DATE  = 
ORIGINATOR     = 

OBJECT_NAME    = SL-14 R/B
OBJECT_ID      = 1986-006B
CENTER_NAME    = EARTH
REF_FRAME      = TEME
TIME_SYSTEM    = UTC
MEAN_ELEMENT_THEORY = SGP/SGP4

EPOCH          = 2025-11-19T19:34:12.467712
MEAN_MOTION    = 14.86626612
ECCENTRICITY   = .0075212
INCLINATION    = 82.5281
RA_OF_ASC_NODE = 3.1216
ARG_OF_PERICENTER = 277.0717
MEAN_ANOMALY   = 82.1951

EPHEMERIS_TYPE = 0
CLASSIFICATION_TYPE = U
NORAD_CAT_ID   = 16496
ELEMENT_SET_NO = 999
REV_AT_EPOCH   = 13288
BSTAR          = .82765E-4
MEAN_MOTION_DOT = .798E-5
MEAN_MOTION_DDOT = 0

